ONEWEB-0080             
1 45426U 20020C   24256.77705391  .00000449  00000+0  12315-2 0  9993
2 45426  87.8977 149.0049 0001764  86.6694 273.4636 13.11417639218506
ONEWEB-0090             
1 45427U 20020D   24256.71770795 -.00000362  00000+0 -10559-2 0  9992
2 45427  87.8981 149.0035 0001787  73.9825 286.1500 13.11414124218469
ONEWEB-0061             
1 45428U 20020E   24257.43644245 -.00000540  00000+0 -15599-2 0  9990
2 45428  87.8979 148.8556 0001769  74.6202 285.5121 13.11417260218511
ONEWEB-0081             
1 45429U 20020F   24256.73126441 -.00000463  00000+0 -13414-2 0  9994
2 45429  87.8979 149.0137 0001562  74.8549 285.2752 13.11418211218533
ONEWEB-0069             
1 45430U 20020G   24256.72109804 -.00000324  00000+0 -95000-3 0  9997
2 45430  87.8977 149.0048 0001832  75.7637 284.3695 13.11416201218467
ONEWEB-0031             
1 45431U 20020H   24256.76858163  .00000560  00000+0  15428-2 0  9996
2 45431  87.8984 149.0089 0001837  73.3066 286.8264 13.11421044218455
ONEWEB-0027             
1 45432U 20020J   24257.11384572  .00000170  00000+0  40367-3 0  9993
2 45432  87.9141 133.7484 0002064  73.0150 287.1208 13.17651404221801
ONEWEB-0064             
1 45433U 20020K   24257.45357575  .00000492  00000+0  13512-2 0  9992
2 45433  87.8979 148.8784 0002001  77.0091 283.1260 13.11420412218581
